*******************************************************************************
Ephemeris / WWW_USER Tue Mar 27 22:16:42 2018 Pasadena, USA      / Horizons    
*******************************************************************************
Target body name: Uranus Barycenter (7)           {source: DE431mx}
Center body name: Solar System Barycenter (0)     {source: DE431mx}
Center-site name: BODY CENTER
*******************************************************************************
Start time      : A.D. 2018-Feb-08 00:00:00.0000 TDB
Stop  time      : A.D. 2028-Feb-08 00:00:00.0000 TDB
Step-size       : 7200 minutes
*******************************************************************************
Center geodetic : 0.00000000,0.00000000,0.0000000 {E-lon(deg),Lat(deg),Alt(km)}
Center cylindric: 0.00000000,0.00000000,0.0000000 {E-lon(deg),Dxy(km),Dz(km)}
Center radii    : (undefined)                                                  
Output units    : AU-D                                                         
Output type     : GEOMETRIC cartesian states
Output format   : 2 (position and velocity)
Reference frame : ICRF/J2000.0                                                 
Coordinate systm: Ecliptic and Mean Equinox of Reference Epoch                 
*******************************************************************************
JDTDB
   X     Y     Z
   VX    VY    VZ
*******************************************************************************
$$SOE
2458997.500000000 = A.D. 2020-May-28 00:00:00.0000 TDB 
   1.587627533394369E+01  1.183097993089355E+01 -1.617385602317512E-01
  -2.379056048465904E-03  2.970457378539990E-03  4.185337992250391E-05
2459002.500000000 = A.D. 2020-Jun-02 00:00:00.0000 TDB 
   1.586437248241734E+01  1.184582657355385E+01 -1.615292162136230E-01
  -2.382084233569968E-03  2.968199175703612E-03  4.188422118886670E-05
2459007.500000000 = A.D. 2020-Jun-07 00:00:00.0000 TDB 
   1.585245449489552E+01  1.186066191755289E+01 -1.613197180812857E-01
  -2.385110446156223E-03  2.965937914251715E-03  4.191502560126711E-05
2459012.500000000 = A.D. 2020-Jun-12 00:00:00.0000 TDB 
   1.584052138124835E+01  1.187548594760084E+01 -1.611100660190923E-01
  -2.388134683202389E-03  2.963673595481797E-03  4.194579312502134E-05
2459017.500000000 = A.D. 2020-Jun-17 00:00:00.0000 TDB 
   1.582857315136110E+01  1.189029864841434E+01 -1.609002602115751E-01
  -2.391156941687245E-03  2.961406220693038E-03  4.197652372542596E-05
2459022.500000000 = A.D. 2020-Jun-22 00:00:00.0000 TDB 
   1.581660981513411E+01  1.190510000471657E+01 -1.606903008434355E-01
  -2.394177218590625E-03  2.959135791186297E-03  4.200721736775779E-05
2459027.500000000 = A.D. 2020-Jun-27 00:00:00.0000 TDB 
   1.580463138248286E+01  1.191989000123718E+01 -1.604801880995510E-01
  -2.397195510893516E-03  2.956862308264218E-03  4.203787401730980E-05
2459032.500000000 = A.D. 2020-Jul-02 00:00:00.0000 TDB 
   1.579263786333787E+01  1.193466862271236E+01 -1.602699221649751E-01
  -2.400211815578709E-03  2.954585773231835E-03  4.206849363929651E-05
2459037.500000000 = A.D. 2020-Jul-07 00:00:00.0000 TDB 
   1.578062926764479E+01  1.194943585388483E+01 -1.600595032249286E-01
  -2.403226129630416E-03  2.952306187395733E-03  4.209907619902472E-05
2459042.500000000 = A.D. 2020-Jul-12 00:00:00.0000 TDB 
   1.576860560536432E+01  1.196419167950383E+01 -1.598489314648125E-01
  -2.406238450034021E-03  2.950023552064987E-03  4.212962166187297E-05
2459047.500000000 = A.D. 2020-Jul-17 00:00:00.0000 TDB 
   1.575656688647222E+01  1.197893608432517E+01 -1.596382070701960E-01
  -2.409248773776077E-03  2.947737868551300E-03  4.216012999325644E-05
2459052.500000000 = A.D. 2020-Jul-22 00:00:00.0000 TDB 
   1.574451312095935E+01  1.199366905311122E+01 -1.594273302268227E-01
  -2.412257097844315E-03  2.945449138169013E-03  4.219060115862419E-05
2459057.500000000 = A.D. 2020-Jul-27 00:00:00.0000 TDB 
   1.573244431883159E+01  1.200839057063094E+01 -1.592163011206107E-01
  -2.415263419227754E-03  2.943157362235132E-03  4.222103512344732E-05
2459062.500000000 = A.D. 2020-Aug-01 00:00:00.0000 TDB 
   1.572036049010990E+01  1.202310062165986E+01 -1.590051199376471E-01
  -2.418267734915685E-03  2.940862542069991E-03  4.225143185312807E-05
2459067.500000000 = A.D. 2020-Aug-06 00:00:00.0000 TDB 
   1.570826164483027E+01  1.203779919098013E+01 -1.587937868641959E-01
  -2.421270041897367E-03  2.938564678996640E-03  4.228179131315782E-05
2459072.500000000 = A.D. 2020-Aug-11 00:00:00.0000 TDB 
   1.569614779304378E+01  1.205248626338052E+01 -1.585823020866891E-01
  -2.424270337163409E-03  2.936263774340751E-03  4.231211346903997E-05
2459077.500000000 = A.D. 2020-Aug-16 00:00:00.0000 TDB 
   1.568401894481651E+01  1.206716182365644E+01 -1.583706657917358E-01
  -2.427268617704638E-03  2.933959829430738E-03  4.234239828630028E-05
2459082.500000000 = A.D. 2020-Aug-21 00:00:00.0000 TDB 
   1.567187511022962E+01  1.208182585660996E+01 -1.581588781661148E-01
  -2.430264880512096E-03  2.931652845597766E-03  4.237264573048681E-05
2459087.500000000 = A.D. 2020-Aug-26 00:00:00.0000 TDB 
   1.565971629937930E+01  1.209647834704977E+01 -1.579469393967778E-01
  -2.433259122577042E-03  2.929342824175741E-03  4.240285576716977E-05
2459092.500000000 = A.D. 2020-Aug-31 00:00:00.0000 TDB 
   1.564754252237677E+01  1.211111927979129E+01 -1.577348496708477E-01
  -2.436251340890902E-03  2.927029766501644E-03  4.243302836190992E-05
2459097.500000000 = A.D. 2020-Sep-05 00:00:00.0000 TDB 
   1.563535378934832E+01  1.212574863965660E+01 -1.575226091756188E-01
  -2.439241532445197E-03  2.924713673915030E-03  4.246316348020594E-05
2459102.500000000 = A.D. 2020-Sep-10 00:00:00.0000 TDB 
   1.562315011043527E+01  1.214036641147449E+01 -1.573102180985640E-01
  -2.442229694231292E-03  2.922394547757507E-03  4.249326108757922E-05
2459107.500000000 = A.D. 2020-Sep-15 00:00:00.0000 TDB 
   1.561093149579397E+01  1.215497258008046E+01 -1.570976766273195E-01
  -2.445215823241066E-03  2.920072389372804E-03  4.252332114953469E-05
2459112.500000000 = A.D. 2020-Sep-20 00:00:00.0000 TDB 
   1.559869795559583E+01  1.216956713031675E+01 -1.568849849497007E-01
  -2.448199916466963E-03  2.917747200106725E-03  4.255334363156388E-05
2459117.500000000 = A.D. 2020-Sep-25 00:00:00.0000 TDB 
   1.558644950002728E+01  1.218415004703231E+01 -1.566721432536944E-01
  -2.451181970901984E-03  2.915418981307165E-03  4.258332849914135E-05
2459122.500000000 = A.D. 2020-Sep-30 00:00:00.0000 TDB 
   1.557418613928981E+01  1.219872131508285E+01 -1.564591517274580E-01
  -2.454161983539798E-03  2.913087734323993E-03  4.261327571772743E-05
2459127.500000000 = A.D. 2020-Oct-05 00:00:00.0000 TDB 
   1.556190788359989E+01  1.221328091933083E+01 -1.562460105593249E-01
  -2.457139951375070E-03  2.910753460508740E-03  4.264318525263356E-05
2459132.500000000 = A.D. 2020-Oct-10 00:00:00.0000 TDB 
   1.554961474318907E+01  1.222782884464547E+01 -1.560327199377959E-01
  -2.460115871403674E-03  2.908416161215271E-03  4.267305706926970E-05
2459137.500000000 = A.D. 2020-Oct-15 00:00:00.0000 TDB 
   1.553730672830387E+01  1.224236507590278E+01 -1.558192800515526E-01
  -2.463089740622544E-03  2.906075837799741E-03  4.270289113312091E-05
2459142.500000000 = A.D. 2020-Oct-20 00:00:00.0000 TDB 
   1.552498384920586E+01  1.225688959798553E+01 -1.556056910894433E-01
  -2.466061556029493E-03  2.903732491620637E-03  4.273268740967651E-05
2459147.500000000 = A.D. 2020-Oct-25 00:00:00.0000 TDB 
   1.551264611617160E+01  1.227140239578332E+01 -1.553919532404922E-01
  -2.469031314623219E-03  2.901386124038775E-03  4.276244586443443E-05
2459152.500000000 = A.D. 2020-Oct-30 00:00:00.0000 TDB 
   1.550029353949265E+01  1.228590345419252E+01 -1.551780666938919E-01
  -2.471999013403302E-03  2.899036736417303E-03  4.279216646289743E-05
2459157.500000000 = A.D. 2020-Nov-04 00:00:00.0000 TDB 
   1.548792612947559E+01  1.230039275811637E+01 -1.549640316390141E-01
  -2.474964649369775E-03  2.896684330122379E-03  4.282184917046405E-05
2459162.500000000 = A.D. 2020-Nov-09 00:00:00.0000 TDB 
   1.547554389644197E+01  1.231487029246490E+01 -1.547498482653971E-01
  -2.477928219523312E-03  2.894328906521692E-03  4.285149395275850E-05
2459167.500000000 = A.D. 2020-Nov-14 00:00:00.0000 TDB 
   1.546314685072837E+01  1.232933604215502E+01 -1.545355167627528E-01
  -2.480889720866140E-03  2.891970466985817E-03  4.288110077524318E-05
2459172.500000000 = A.D. 2020-Nov-19 00:00:00.0000 TDB 
   1.545073500268632E+01  1.234378999211049E+01 -1.543210373209679E-01
  -2.483849150400950E-03  2.889609012887833E-03  4.291066960347896E-05
2459177.500000000 = A.D. 2020-Nov-24 00:00:00.0000 TDB 
   1.543830836268237E+01  1.235823212726192E+01 -1.541064101300993E-01
  -2.486806505130884E-03  2.887244545603319E-03  4.294020040312867E-05
2459182.500000000 = A.D. 2020-Nov-29 00:00:00.0000 TDB 
   1.542586694109802E+01  1.237266243254684E+01 -1.538916353803748E-01
  -2.489761782059545E-03  2.884877066510353E-03  4.296969313995594E-05
2459187.500000000 = A.D. 2020-Dec-04 00:00:00.0000 TDB 
   1.541341074832977E+01  1.238708089290965E+01 -1.536767132621946E-01
  -2.492714978191017E-03  2.882506576989601E-03  4.299914777968963E-05
2459192.500000000 = A.D. 2020-Dec-09 00:00:00.0000 TDB 
   1.540093979478910E+01  1.240148749330166E+01 -1.534616439661300E-01
  -2.495666090530064E-03  2.880133078424218E-03  4.302856428769660E-05
2459197.500000000 = A.D. 2020-Dec-14 00:00:00.0000 TDB 
   1.538845409090245E+01  1.241588221868112E+01 -1.532464276829272E-01
  -2.498615116081798E-03  2.877756572199248E-03  4.305794262976624E-05
2459202.500000000 = A.D. 2020-Dec-19 00:00:00.0000 TDB 
   1.537595364711125E+01  1.243026505401320E+01 -1.530310646035000E-01
  -2.501562051852113E-03  2.875377059701770E-03  4.308728277167027E-05
